CCSDS_OMM_VERS = 2.0
CREATION_DATE  = 
ORIGINATOR     = 

OBJECT_NAME    = STARLINK-36083
OBJECT_ID      = 2025-281K
CENTER_NAME    = EARTH
REF_FRAME      = TEME
TIME_SYSTEM    = UTC
MEAN_ELEMENT_THEORY = SGP/SGP4

EPOCH          = 2025-12-26T22:00:01.999584
MEAN_MOTION    = 15.50665817
ECCENTRICITY   = .00010425
INCLINATION    = 43.0005
RA_OF_ASC_NODE = 36.7090
ARG_OF_PERICENTER = 248.4944
MEAN_ANOMALY   = 338.4955

EPHEMERIS_TYPE = 0
CLASSIFICATION_TYPE = U
NORAD_CAT_ID   = 66857
ELEMENT_SET_NO = 999
REV_AT_EPOCH   = 366
BSTAR          = -.25386905E-2
MEAN_MOTION_DOT = -.146961E-2
MEAN_MOTION_DDOT = 0

CCSDS_OMM_VERS = 2.0
CREATION_DATE  = 
ORIGINATOR     = 

OBJECT_NAME    = STARLINK-35118
OBJECT_ID      = 2025-281L
CENTER_NAME    = EARTH
REF_FRAME      = TEME
TIME_SYSTEM    = UTC
MEAN_ELEMENT_THEORY = SGP/SGP4

EPOCH          = 2025-12-26T22:00:01.999584
MEAN_MOTION    = 15.50675547
ECCENTRICITY   = .00012488
INCLINATION    = 43.0004
RA_OF_ASC_NODE = 36.7041
ARG_OF_PERICENTER = 235.6793
MEAN_ANOMALY   = 353.2317

EPHEMERIS_TYPE = 0
CLASSIFICATION_TYPE = U
NORAD_CAT_ID   = 66858
ELEMENT_SET_NO = 999
REV_AT_EPOCH   = 345
BSTAR          = -.29595779E-2
MEAN_MOTION_DOT = -.170816E-2
MEAN_MOTION_DDOT = 0

CCSDS_OMM_VERS = 2.0
CREATION_DATE  = 
ORIGINATOR     = 

OBJECT_NAME    = STARLINK-35646
OBJECT_ID      = 2025-281M
CENTER_NAME    = EARTH
REF_FRAME      = TEME
TIME_SYSTEM    = UTC
MEAN_ELEMENT_THEORY = SGP/SGP4

EPOCH          = 2025-12-26T22:00:01.999584
MEAN_MOTION    = 15.50596398
ECCENTRICITY   = .00009935
INCLINATION    = 43.0004
RA_OF_ASC_NODE = 36.6993
ARG_OF_PERICENTER = 265.5044
MEAN_ANOMALY   = 325.3959

EPHEMERIS_TYPE = 0
CLASSIFICATION_TYPE = U
NORAD_CAT_ID   = 66859
ELEMENT_SET_NO = 999
REV_AT_EPOCH   = 366
BSTAR          = -.15206101E-2
MEAN_MOTION_DOT = -.88597E-3
MEAN_MOTION_DDOT = 0

CCSDS_OMM_VERS = 2.0
CREATION_DATE  = 
ORIGINATOR     = 

OBJECT_NAME    = STARLINK-35987
OBJECT_ID      = 2025-281N
CENTER_NAME    = EARTH
REF_FRAME      = TEME
TIME_SYSTEM    = UTC
MEAN_ELEMENT_THEORY = SGP/SGP4

EPOCH          = 2025-12-26T22:00:01.999584
MEAN_MOTION    = 15.50592986
ECCENTRICITY   = .00014161
INCLINATION    = 43.0005
RA_OF_ASC_NODE = 36.6756
ARG_OF_PERICENTER = 271.5552
MEAN_ANOMALY   = 328.9324

EPHEMERIS_TYPE = 0
CLASSIFICATION_TYPE = U
NORAD_CAT_ID   = 66860
ELEMENT_SET_NO = 999
REV_AT_EPOCH   = 366
BSTAR          = -.14430703E-2
MEAN_MOTION_DOT = -.84137E-3
MEAN_MOTION_DDOT = 0

CCSDS_OMM_VERS = 2.0
CREATION_DATE  = 
ORIGINATOR     = 

OBJECT_NAME    = STARLINK-35991
OBJECT_ID      = 2025-281P
CENTER_NAME    = EARTH
REF_FRAME      = TEME
TIME_SYSTEM    = UTC
MEAN_ELEMENT_THEORY = SGP/SGP4

EPOCH          = 2025-12-26T22:00:01.999584
MEAN_MOTION    = 15.50593970
ECCENTRICITY   = .00008901
INCLINATION    = 43.0005
RA_OF_ASC_NODE = 36.6898
ARG_OF_PERICENTER = 272.5033
MEAN_ANOMALY   = 322.2301

EPHEMERIS_TYPE = 0
CLASSIFICATION_TYPE = U
NORAD_CAT_ID   = 66861
ELEMENT_SET_NO = 999
REV_AT_EPOCH   = 366
BSTAR          = -.14030637E-2
MEAN_MOTION_DOT = -.81837E-3
MEAN_MOTION_DDOT = 0

CCSDS_OMM_VERS = 2.0
CREATION_DATE  = 
ORIGINATOR     = 

OBJECT_NAME    = STARLINK-35974
OBJECT_ID      = 2025-281Q
CENTER_NAME    = EARTH
REF_FRAME      = TEME
TIME_SYSTEM    = UTC
MEAN_ELEMENT_THEORY = SGP/SGP4

EPOCH          = 2025-12-26T22:00:01.999584
MEAN_MOTION    = 15.50656657
ECCENTRICITY   = .00010637
INCLINATION    = 43.0006
RA_OF_ASC_NODE = 36.6949
ARG_OF_PERICENTER = 250.6475
MEAN_ANOMALY   = 342.0810

EPHEMERIS_TYPE = 0
CLASSIFICATION_TYPE = U
NORAD_CAT_ID   = 66862
ELEMENT_SET_NO = 999
REV_AT_EPOCH   = 356
BSTAR          = -.21222183E-2
MEAN_MOTION_DOT = -.123238E-2
MEAN_MOTION_DDOT = 0

CCSDS_OMM_VERS = 2.0
CREATION_DATE  = 
ORIGINATOR     = 

OBJECT_NAME    = STARLINK-36134
OBJECT_ID      = 2025-281R
CENTER_NAME    = EARTH
REF_FRAME      = TEME
TIME_SYSTEM    = UTC
MEAN_ELEMENT_THEORY = SGP/SGP4

EPOCH          = 2025-12-26T22:00:01.999584
MEAN_MOTION    = 15.50605124
ECCENTRICITY   = .00008935
INCLINATION    = 43.0003
RA_OF_ASC_NODE = 36.6857
ARG_OF_PERICENTER = 275.6721
MEAN_ANOMALY   = 320.9792

EPHEMERIS_TYPE = 0
CLASSIFICATION_TYPE = U
NORAD_CAT_ID   = 66863
ELEMENT_SET_NO = 999
REV_AT_EPOCH   = 366
BSTAR          = -.18473858E-2
MEAN_MOTION_DOT = -.107341E-2
MEAN_MOTION_DDOT = 0

CCSDS_OMM_VERS = 2.0
CREATION_DATE  = 
ORIGINATOR     = 

OBJECT_NAME    = STARLINK-36070
OBJECT_ID      = 2025-281S
CENTER_NAME    = EARTH
REF_FRAME      = TEME
TIME_SYSTEM    = UTC
MEAN_ELEMENT_THEORY = SGP/SGP4

EPOCH          = 2025-12-26T22:00:01.999584
MEAN_MOTION    = 15.50571003
ECCENTRICITY   = .00011782
INCLINATION    = 43.0004
RA_OF_ASC_NODE = 36.6804
ARG_OF_PERICENTER = 248.5632
MEAN_ANOMALY   = 349.8962

EPHEMERIS_TYPE = 0
CLASSIFICATION_TYPE = U
NORAD_CAT_ID   = 66864
ELEMENT_SET_NO = 999
REV_AT_EPOCH   = 369
BSTAR          = .73057914E-3
MEAN_MOTION_DOT = .4274E-3
MEAN_MOTION_DDOT = 0

CCSDS_OMM_VERS = 2.0
CREATION_DATE  = 
ORIGINATOR     = 

OBJECT_NAME    = STARLINK-36117
OBJECT_ID      = 2025-281T
CENTER_NAME    = EARTH
REF_FRAME      = TEME
TIME_SYSTEM    = UTC
MEAN_ELEMENT_THEORY = SGP/SGP4

EPOCH          = 2025-12-26T22:00:01.999584
MEAN_MOTION    = 15.50706626
ECCENTRICITY   = .00011882
INCLINATION    = 43.0005
RA_OF_ASC_NODE = 36.6711
ARG_OF_PERICENTER = 265.8212
MEAN_ANOMALY   = 336.5661

EPHEMERIS_TYPE = 0
CLASSIFICATION_TYPE = U
NORAD_CAT_ID   = 66865
ELEMENT_SET_NO = 999
REV_AT_EPOCH   = 366
BSTAR          = -.47007398E-2
MEAN_MOTION_DOT = -.268092E-2
MEAN_MOTION_DDOT = 0

CCSDS_OMM_VERS = 2.0
CREATION_DATE  = 
ORIGINATOR     = 

OBJECT_NAME    = STARLINK-36126
OBJECT_ID      = 2025-281U
CENTER_NAME    = EARTH
REF_FRAME      = TEME
TIME_SYSTEM    = UTC
MEAN_ELEMENT_THEORY = SGP/SGP4

EPOCH          = 2025-12-26T22:00:01.999584
MEAN_MOTION    = 15.50582003
ECCENTRICITY   = .00011355
INCLINATION    = 43.0005
RA_OF_ASC_NODE = 36.6658
ARG_OF_PERICENTER = 244.4812
MEAN_ANOMALY   = 359.7378

EPHEMERIS_TYPE = 0
CLASSIFICATION_TYPE = U
NORAD_CAT_ID   = 66866
ELEMENT_SET_NO = 999
REV_AT_EPOCH   = 369
BSTAR          = .20833652E-3
MEAN_MOTION_DOT = .119E-3
MEAN_MOTION_DDOT = 0

CCSDS_OMM_VERS = 2.0
CREATION_DATE  = 
ORIGINATOR     = 

OBJECT_NAME    = STARLINK-36101
OBJECT_ID      = 2025-281V
CENTER_NAME    = EARTH
REF_FRAME      = TEME
TIME_SYSTEM    = UTC
MEAN_ELEMENT_THEORY = SGP/SGP4

EPOCH          = 2025-12-26T22:00:01.999584
MEAN_MOTION    = 15.50586057
ECCENTRICITY   = .00010743
INCLINATION    = 43.0004
RA_OF_ASC_NODE = 36.6616
ARG_OF_PERICENTER = 242.7959
MEAN_ANOMALY   = 3.4445

EPHEMERIS_TYPE = 0
CLASSIFICATION_TYPE = U
NORAD_CAT_ID   = 66867
ELEMENT_SET_NO = 999
REV_AT_EPOCH   = 350
BSTAR          = -.11691748E-2
MEAN_MOTION_DOT = -.68351E-3
MEAN_MOTION_DDOT = 0

CCSDS_OMM_VERS = 2.0
CREATION_DATE  = 
ORIGINATOR     = 

OBJECT_NAME    = STARLINK-36108
OBJECT_ID      = 2025-281W
CENTER_NAME    = EARTH
REF_FRAME      = TEME
TIME_SYSTEM    = UTC
MEAN_ELEMENT_THEORY = SGP/SGP4

EPOCH          = 2025-12-26T22:00:01.999584
MEAN_MOTION    = 15.50679106
ECCENTRICITY   = .0001138
INCLINATION    = 43.0002
RA_OF_ASC_NODE = 36.6562
ARG_OF_PERICENTER = 258.3426
MEAN_ANOMALY   = 349.7574

EPHEMERIS_TYPE = 0
CLASSIFICATION_TYPE = U
NORAD_CAT_ID   = 66868
ELEMENT_SET_NO = 999
REV_AT_EPOCH   = 350
BSTAR          = -.33669089E-2
MEAN_MOTION_DOT = -.193739E-2
MEAN_MOTION_DDOT = 0

