STARLINK-36083          
1 66857U 25281K   25360.91668981 -.00146961  00000+0 -25387-2 0  9999
2 66857  43.0005  36.7090 0001042 248.4944 338.4955 15.50665817  3669
STARLINK-35118          
1 66858U 25281L   25360.91668981 -.00170816  00000+0 -29596-2 0  9992
2 66858  43.0004  36.7041 0001248 235.6793 353.2317 15.50675547  3458
STARLINK-35646          
1 66859U 25281M   25360.91668981 -.00088597  00000+0 -15206-2 0  9990
2 66859  43.0004  36.6993 0000993 265.5044 325.3959 15.50596398  3662
STARLINK-35987          
1 66860U 25281N   25360.91668981 -.00084137  00000+0 -14431-2 0  9997
2 66860  43.0005  36.6756 0001416 271.5552 328.9324 15.50592986  3668
STARLINK-35991          
1 66861U 25281P   25360.91668981 -.00081837  00000+0 -14031-2 0  9998
2 66861  43.0005  36.6898 0000890 272.5033 322.2301 15.50593970  3662
STARLINK-35974          
1 66862U 25281Q   25360.91668981 -.00123238  00000+0 -21222-2 0  9991
2 66862  43.0006  36.6949 0001063 250.6475 342.0810 15.50656657  3567
STARLINK-36134          
1 66863U 25281R   25360.91668981 -.00107341  00000+0 -18474-2 0  9994
2 66863  43.0003  36.6857 0000893 275.6721 320.9792 15.50605124  3662
STARLINK-36070          
1 66864U 25281S   25360.91668981  .00042740  00000+0  73058-3 0  9994
2 66864  43.0004  36.6804 0001178 248.5632 349.8962 15.50571003  3693
STARLINK-36117          
1 66865U 25281T   25360.91668981 -.00268092  00000+0 -47007-2 0  9991
2 66865  43.0005  36.6711 0001188 265.8212 336.5661 15.50706626  3666
STARLINK-36126          
1 66866U 25281U   25360.91668981  .00011900  00000+0  20834-3 0  9994
2 66866  43.0005  36.6658 0001135 244.4812 359.7378 15.50582003  3694
STARLINK-36101          
1 66867U 25281V   25360.91668981 -.00068351  00000+0 -11692-2 0  9990
2 66867  43.0004  36.6616 0001074 242.7959   3.4445 15.50586057  3504
STARLINK-36108          
1 66868U 25281W   25360.91668981 -.00193739  00000+0 -33669-2 0  9998
2 66868  43.0002  36.6562 0001138 258.3426 349.7574 15.50679106  3503
